RS-44 & BREEZE-KM R/B   
1 44909U 19096E   24101.56301626  .00000029  00000+0  72964-4 0  9990
2 44909  82.5212 149.7121 0216991 209.0366 149.8526 12.79728468200323
BY70-2                  
1 45857U 20042B   24101.57290789  .00054007  00000+0  29436-2 0  9993
2 45857  97.9095 191.5966 0004912 114.1810 245.9934 15.14176626204268
SALSAT                  
1 46495U 20068K   24101.39881210  .00005931  00000+0  35023-3 0  9997
2 46495  97.8115  59.0785 0014168 176.6411 183.4916 15.11831815194067
RADFXSAT-2 (AO-109)     
1 47311U 21002C   24101.19874804  .00551549  13486-3  13515-2 0  9991
2 47311  60.6602 325.0298 0009644 109.5037 250.7127 15.95677490180629
UVSQ-SAT                
1 47438U 21006AB  24101.12632288  .00037190  00000+0  92396-3 0  9996
2 47438  97.3351 161.0522 0008244 106.2774 253.9380 15.40194934178239
LEDSAT                  
1 49069U 21073D   24101.14019316  .00015015  00000+0  65773-3 0  9996
2 49069  97.4426 172.8502 0021398 161.0010 199.2029 15.21902940146094
XW-3 (CAS-9)            
1 50466U 21131B   24101.56700510  .00000648  00000+0  22224-3 0  9993
2 50466  98.5276 186.9635 0003473 343.5577  16.5497 14.39471865120271
TEVEL-3                 
1 50988U 22002E   24101.56698169  .00062915  00000+0  11413-2 0  9998
2 50988  97.3860 174.9696 0005118 227.7316 132.3501 15.49375351124522
TEVEL-8                 
1 50989U 22002F   24101.53779317  .00064599  00000+0  11770-2 0  9997
2 50989  97.3877 175.0273 0005035 226.2496 133.8339 15.49243364124517
TEVEL-5                 
1 50998U 22002Q   24101.56066596  .00076222  00000+0  12469-2 0  9990
2 50998  97.3846 175.9729 0005799 221.3329 138.7485 15.52240973124597
TEVEL-6                 
1 50999U 22002R   24101.56330123  .00075309  00000+0  12362-2 0  9998
2 50999  97.3841 175.9537 0005746 221.3537 138.7281 15.52148867124596
TEVEL-1                 
1 51013U 22002AF  24101.33252696  .00059731  00000+0  10901-2 0  9997
2 51013  97.3857 174.6064 0005098 227.5019 132.5801 15.49216635124488
TEVEL-7                 
1 51062U 22002CG  24101.46525091  .00071022  00000+0  12883-2 0  9995
2 51062  97.3874 174.9267 0005167 226.5548 133.5274 15.49342776124506
TEVEL-4                 
1 51063U 22002CH  24101.55840453  .00064215  00000+0  11765-2 0  9992
2 51063  97.3876 174.9456 0005170 227.5143 132.5672 15.49085579124512
TEVEL-2                 
1 51069U 22002CP  24101.56588555  .00064151  00000+0  11620-2 0  9990
2 51069  97.3858 174.9358 0005135 226.8855 133.1967 15.49412442124520
GREENCUBE               
1 53106U 22080B   24099.70722617 -.00000003  00000+0  00000+0 0  9995
2 53106  70.1414 216.6532 0008047 121.1128 239.0321  6.42557348 40800
KUZBASS-300 (RS34S)     
1 53375U 22096F   24101.55224015  .00175473  00000+0  11538-2 0  9990
2 53375  97.3876  20.0130 0006447 114.5688 245.6249 15.75157154 93853
UTMN (RS23S)            
1 53376U 22096G   24101.36006691  .00262488  00000+0  13246-2 0  9999
2 53376  97.3855  20.6840 0006465 121.9925 238.1972 15.80888420 93887
MIET-AIS (RS28S)        
1 53377U 22096H   24101.55828194  .00120362  00000+0  10890-2 0  9997
2 53377  97.3923  19.1524 0004894 111.0496 249.1289 15.67690907 93792
KAI-1 (RS26S)           
1 53378U 22096J   24101.61389605  .00053921  00000+0  74955-3 0  9993
2 53378  97.3989  17.3600 0003409 114.3937 245.7674 15.56823840 93676
ISOI (RS19S)            
1 53381U 22096M   24101.60098865  .00128120  00000+0  10653-2 0  9999
2 53381  97.3940  20.0031 0005407 101.3565 258.8305 15.69734974 93858
CUBESX-HSE-2 (RS21S)    
1 53383U 22096P   24101.54590677  .00238269  00000+0  12586-2 0  9995
2 53383  97.3854  21.0723 0006635 106.6236 253.5760 15.79942806 93921
SIREN (RS30S)           
1 53384U 22096Q   24101.55702608  .00085573  00000+0  93750-3 0  9997
2 53384  97.3957  18.7305 0004947  87.1768 273.0057 15.62977106 93763
CAS-5A (FO-118)         
1 54684U 22167C   24101.61789051  .00020856  00000+0  82141-3 0  9999
2 54684  97.5969 245.1068 0010100  23.9610 336.2095 15.25591442 73986
STRATOSAT-TK 1 (RS52S)  
1 57167U 23091B   24101.61383832  .00010340  00000+0  64180-3 0  9992
2 57167  97.6193 154.9690 0015074 356.3478   3.7638 15.09799873 43350
UMKA 1 (RS40S)          
1 57172U 23091G   24101.60774870  .00004395  00000+0  30106-3 0  9997
2 57172  97.6198 154.3623 0016638 358.0327   2.0832 15.06471685 43319
CUBESX-HSE 3 (RS42S)    
1 57178U 23091N   24101.61520384  .00006146  00000+0  40890-3 0  9990
2 57178  97.6232 154.6436 0017003 351.4579   8.6357 15.07396711 43324
MONITOR-4 (RS57S)       
1 57182U 23091S   24101.58411108  .00005016  00000+0  33776-3 0  9994
2 57182  97.6213 154.4880 0017376 352.4094   7.6868 15.07037830 43314
MONITOR-2 (RS39S)       
1 57184U 23091U   24101.57946050  .00003529  00000+0  24115-3 0  9998
2 57184  97.6217 154.6661 0013767 346.9803  13.1067 15.06734143 43329
SVYATOBOR 1 (RS60S)     
1 57187U 23091X   24101.59630897  .00004889  00000+0  32230-3 0  9999
2 57187  97.6225 154.9555 0013025 345.3921  14.6929 15.07884604 43341
VIZARD-METEO (RS38S)    
1 57189U 23091Z   24101.60701045  .00006353  00000+0  40581-3 0  9993
2 57189  97.6220 155.2208 0011849 343.2105  16.8730 15.08947467 43364
NANOZOND 1 (RS49S)      
1 57190U 23091AA  24101.57362224  .00009819  00000+0  59487-3 0  9998
2 57190  97.6189 155.4749 0010332 347.8547  12.2432 15.10746270 43381
POLYTECH-UNIVERSE 3 (R*)
1 57191U 23091AB  24101.58037264  .00003311  00000+0  22674-3 0  9992
2 57191  97.6184 154.3896 0019646   2.9345 357.1994 15.06622324 43315
UTMN 2 (RS27S)          
1 57203U 23091AP  24101.57883871  .00005978  00000+0  38584-3 0  9996
2 57203  97.6211 155.1024 0012317 342.5808  17.4996 15.08581938 43356
ARCCUBE 1 (RS25S)       
1 57205U 23091AR  24101.59199646  .00010189  00000+0  60511-3 0  9995
2 57205  97.6163 155.5306 0010453 349.9423  10.1596 15.11461228 43397
KUZGTU 1 (RS47S)        
1 57217U 23091AV  24101.61850998  .00006242  00000+0  41627-3 0  9997
2 57217  97.6206 154.5471 0016972 352.5549   7.5424 15.07301969 43324
HADES-D (SO-121)        
1 58567U 23174CY  24101.45612905  .00034879  00000+0  15115-2 0  9993
2 58567  97.4595 177.3386 0014495 113.3465 246.9298 15.22203744 23457
